{
  "type": "FeatureCollection",
  "features": [
    {
      "type": "Feature",
      "properties": {
        "norad_id": 42988,
        "name": "SKYSAT-C10",
        "group": "resource",
        "lat": 81.26445978821762,
        "lon": 49.568465570113666,
        "alt_km": 459.4953490574662,
        "timestamp": "2025-12-02T19:35:50.219348+00:00",
        "meta_object_name": "SKYSAT-C10",
        "meta_object_id": "2017-068B",
        "meta_epoch": "2025-12-02T08:15:09.326016",
        "meta_mean_motion": 15.3195516,
        "meta_eccentricity": 0.0005465,
        "meta_inclination": 97.425,
        "meta_ra_of_asc_node": 107.1686,
        "meta_arg_of_pericenter": 123.3148,
        "meta_mean_anomaly": 236.8617,
        "meta_ephemeris_type": 0,
        "meta_classification_type": "U",
        "meta_norad_cat_id": 42988,
        "meta_element_set_no": 999,
        "meta_rev_at_epoch": 45220,
        "meta_bstar": 0.00044463,
        "meta_mean_motion_dot": 0.00013655,
        "meta_mean_motion_ddot": 0,
        "tle_line1": "1 42988U 17068B   25336.34385794  .00013655  00000+0  44463-3 0  9998",
        "tle_line2": "2 42988  97.4250 107.1686 0005465 123.3148 236.8617 15.31955160452203"
      },
      "geometry": {
        "type": "Point",
        "coordinates": [
          49.568465570113666,
          81.26445978821762
        ]
      }
    },
    {
      "type": "Feature",
      "properties": {
        "norad_id": 42989,
        "name": "SKYSAT-C9",
        "group": "resource",
        "lat": 26.626101663430664,
        "lon": -69.25961099215601,
        "alt_km": 452.0229068581866,
        "timestamp": "2025-12-02T19:35:50.219359+00:00",
        "meta_object_name": "SKYSAT-C9",
        "meta_object_id": "2017-068C",
        "meta_epoch": "2025-12-02T07:59:11.884416",
        "meta_mean_motion": 15.35629577,
        "meta_eccentricity": 0.0010632,
        "meta_inclination": 97.4179,
        "meta_ra_of_asc_node": 106.5082,
        "meta_arg_of_pericenter": 121.6479,
        "meta_mean_anomaly": 238.5803,
        "meta_ephemeris_type": 0,
        "meta_classification_type": "U",
        "meta_norad_cat_id": 42989,
        "meta_element_set_no": 999,
        "meta_rev_at_epoch": 45248,
        "meta_bstar": 0.00047935,
        "meta_mean_motion_dot": 0.00016569,
        "meta_mean_motion_ddot": 0,
        "tle_line1": "1 42989U 17068C   25336.33277644  .00016569  00000+0  47935-3 0  9996",
        "tle_line2": "2 42989  97.4179 106.5082 0010632 121.6479 238.5803 15.35629577452487"
      },
      "geometry": {
        "type": "Point",
        "coordinates": [
          -69.25961099215601,
          26.626101663430664
        ]
      }
    },
    {
      "type": "Feature",
      "properties": {
        "norad_id": 42990,
        "name": "SKYSAT-C8",
        "group": "resource",
        "lat": -53.83492440551881,
        "lon": -83.50413781394623,
        "alt_km": 476.45065322395385,
        "timestamp": "2025-12-02T19:35:50.219369+00:00",
        "meta_object_name": "SKYSAT-C8",
        "meta_object_id": "2017-068D",
        "meta_epoch": "2025-12-02T07:36:29.906784",
        "meta_mean_motion": 15.32559128,
        "meta_eccentricity": 0.0002193,
        "meta_inclination": 97.4271,
        "meta_ra_of_asc_node": 106.275,
        "meta_arg_of_pericenter": 23.0676,
        "meta_mean_anomaly": 337.0664,
        "meta_ephemeris_type": 0,
        "meta_classification_type": "U",
        "meta_norad_cat_id": 42990,
        "meta_element_set_no": 999,
        "meta_rev_at_epoch": 45211,
        "meta_bstar": 0.00046305,
        "meta_mean_motion_dot": 0.00014492,
        "meta_mean_motion_ddot": 0,
        "tle_line1": "1 42990U 17068D   25336.31701281  .00014492  00000+0  46305-3 0  9998",
        "tle_line2": "2 42990  97.4271 106.2750 0002193  23.0676 337.0664 15.32559128452119"
      },
      "geometry": {
        "type": "Point",
        "coordinates": [
          -83.50413781394623,
          -53.83492440551881
        ]
      }
    },
    {
      "type": "Feature",
      "properties": {
        "norad_id": 42991,
        "name": "SKYSAT-C7",
        "group": "resource",
        "lat": 67.70360061579966,
        "lon": -53.622689034106045,
        "alt_km": 458.38668875481926,
        "timestamp": "2025-12-02T19:35:50.219379+00:00",
        "meta_object_name": "SKYSAT-C7",
        "meta_object_id": "2017-068E",
        "meta_epoch": "2025-12-02T08:08:29.512608",
        "meta_mean_motion": 15.31968844,
        "meta_eccentricity": 0.0007866,
        "meta_inclination": 97.4279,
        "meta_ra_of_asc_node": 107.3469,
        "meta_arg_of_pericenter": 89.4344,
        "meta_mean_anomaly": 270.7799,
        "meta_ephemeris_type": 0,
        "meta_classification_type": "U",
        "meta_norad_cat_id": 42991,
        "meta_element_set_no": 999,
        "meta_rev_at_epoch": 45218,
        "meta_bstar": 0.00043643,
        "meta_mean_motion_dot": 0.00013413,
        "meta_mean_motion_ddot": 0,
        "tle_line1": "1 42991U 17068E   25336.33923047  .00013413  00000+0  43643-3 0  9991",
        "tle_line2": "2 42991  97.4279 107.3469 0007866  89.4344 270.7799 15.31968844452184"
      },
      "geometry": {
        "type": "Point",
        "coordinates": [
          -53.622689034106045,
          67.70360061579966
        ]
      }
    },
    {
      "type": "Feature",
      "properties": {
        "norad_id": 42992,
        "name": "SKYSAT-C6",
        "group": "resource",
        "lat": -75.5422495670337,
        "lon": -102.1417462065979,
        "alt_km": 482.64176719494026,
        "timestamp": "2025-12-02T19:35:50.219389+00:00",
        "meta_object_name": "SKYSAT-C6",
        "meta_object_id": "2017-068F",
        "meta_epoch": "2025-12-02T09:03:55.560096",
        "meta_mean_motion": 15.311499,
        "meta_eccentricity": 0.0005136,
        "meta_inclination": 97.4313,
        "meta_ra_of_asc_node": 107.8324,
        "meta_arg_of_pericenter": 111.9945,
        "meta_mean_anomaly": 248.1842,
        "meta_ephemeris_type": 0,
        "meta_classification_type": "U",
        "meta_norad_cat_id": 42992,
        "meta_element_set_no": 999,
        "meta_rev_at_epoch": 45217,
        "meta_bstar": 0.00045944,
        "meta_mean_motion_dot": 0.00013762,
        "meta_mean_motion_ddot": 0,
        "tle_line1": "1 42992U 17068F   25336.37772639  .00013762  00000+0  45944-3 0  9998",
        "tle_line2": "2 42992  97.4313 107.8324 0005136 111.9945 248.1842 15.31149900452176"
      },
      "geometry": {
        "type": "Point",
        "coordinates": [
          -102.1417462065979,
          -75.5422495670337
        ]
      }
    },
    {
      "type": "Feature",
      "properties": {
        "norad_id": 43111,
        "name": "CARTOSAT-2F",
        "group": "resource",
        "lat": 73.56219069468321,
        "lon": 8.349614252949124,
        "alt_km": 501.11080707710425,
        "timestamp": "2025-12-02T19:35:50.219401+00:00",
        "meta_object_name": "CARTOSAT-2F",
        "meta_object_id": "2018-004A",
        "meta_epoch": "2025-12-01T21:08:16.196064",
        "meta_mean_motion": 15.19324266,
        "meta_eccentricity": 9.074e-05,
        "meta_inclination": 97.4331,
        "meta_ra_of_asc_node": 33.6929,
        "meta_arg_of_pericenter": 193.2914,
        "meta_mean_anomaly": 166.8297,
        "meta_ephemeris_type": 0,
        "meta_classification_type": "U",
        "meta_norad_cat_id": 43111,
        "meta_element_set_no": 999,
        "meta_rev_at_epoch": 43737,
        "meta_bstar": 6.1441308e-05,
        "meta_mean_motion_dot": 1.23e-05,
        "meta_mean_motion_ddot": 0,
        "tle_line1": "1 43111U 18004A   25335.88074301  .00001230  00000+0  61441-4 0  9997",
        "tle_line2": "2 43111  97.4331  33.6929 0000907 193.2914 166.8297 15.19324266437378"
      },
      "geometry": {
        "type": "Point",
        "coordinates": [
          8.349614252949124,
          73.56219069468321
        ]
      }
    },
    {
      "type": "Feature",
      "properties": {
        "norad_id": 43259,
        "name": "GAOFEN-1 02",
        "group": "resource",
        "lat": -71.18048388826926,
        "lon": 59.24314306467296,
        "alt_km": 647.0371555793099,
        "timestamp": "2025-12-02T19:35:50.219411+00:00",
        "meta_object_name": "GAOFEN-1 02",
        "meta_object_id": "2018-031A",
        "meta_epoch": "2025-12-02T11:47:40.803936",
        "meta_mean_motion": 14.76445262,
        "meta_eccentricity": 0.0001278,
        "meta_inclination": 98.0821,
        "meta_ra_of_asc_node": 34.2761,
        "meta_arg_of_pericenter": 263.6328,
        "meta_mean_anomaly": 96.4736,
        "meta_ephemeris_type": 0,
        "meta_classification_type": "U",
        "meta_norad_cat_id": 43259,
        "meta_element_set_no": 999,
        "meta_rev_at_epoch": 41367,
        "meta_bstar": 0.00020022,
        "meta_mean_motion_dot": 1.341e-05,
        "meta_mean_motion_ddot": 0,
        "tle_line1": "1 43259U 18031A   25336.49144449  .00001341  00000+0  20022-3 0  9991",
        "tle_line2": "2 43259  98.0821  34.2761 0001278 263.6328  96.4736 14.76445262413671"
      },
      "geometry": {
        "type": "Point",
        "coordinates": [
          59.24314306467296,
          -71.18048388826926
        ]
      }
    }
  ]
}